{
    "links": {
        "self": "http://www.neowsapp.com/rest/v1/neo/3884011?api_key=iIulBulltgU6a56xZRHN4H3l9WmuAYTsLGpBGhQ2"
    },
    "id": "3884011",
    "neo_reference_id": "3884011",
    "name": "(2019 UV8)",
    "designation": "2019 UV8",
    "nasa_jpl_url": "http://ssd.jpl.nasa.gov/sbdb.cgi?sstr=3884011",
    "absolute_magnitude_h": 23.2,
    "estimated_diameter": {
        "kilometers": {
            "estimated_diameter_min": 0.0608912622,
            "estimated_diameter_max": 0.1361570015
        },
        "meters": {
            "estimated_diameter_min": 60.8912622106,
            "estimated_diameter_max": 136.1570015386
        },
        "miles": {
            "estimated_diameter_min": 0.0378360645,
            "estimated_diameter_max": 0.0846040122
        },
        "feet": {
            "estimated_diameter_min": 199.7744887109,
            "estimated_diameter_max": 446.7093369279
        }
    },
    "is_potentially_hazardous_asteroid": false,
    "close_approach_data": [
        {
            "close_approach_date": "2017-11-24",
            "close_approach_date_full": "2017-Nov-24 15:57",
            "epoch_date_close_approach": 1511539020000,
            "relative_velocity": {
                "kilometers_per_second": "1.878968449",
                "kilometers_per_hour": "6764.2864165118",
                "miles_per_hour": "4203.0645236376"
            },
            "miss_distance": {
                "astronomical": "1.9706748748",
                "lunar": "766.5925262972",
                "kilometers": "294808763.732596676",
                "miles": "183185671.3509830888"
            },
            "orbiting_body": "Juptr"
        },
        {
            "close_approach_date": "2019-11-06",
            "close_approach_date_full": "2019-Nov-06 22:26",
            "epoch_date_close_approach": 1573079160000,
            "relative_velocity": {
                "kilometers_per_second": "5.1947274129",
                "kilometers_per_hour": "18701.018686605",
                "miles_per_hour": "11620.0857500185"
            },
            "miss_distance": {
                "astronomical": "0.2545485867",
                "lunar": "99.0194002263",
                "kilometers": "38079926.381830329",
                "miles": "23661769.0428593802"
            },
            "orbiting_body": "Earth"
        }
    ],
    "orbital_data": {
        "orbit_id": "5",
        "orbit_determination_date": "2019-11-28 08:10:43",
        "first_observation_date": "2019-10-23",
        "last_observation_date": "2019-11-28",
        "data_arc_in_days": 36,
        "observations_used": 35,
        "orbit_uncertainty": "6",
        "minimum_orbit_intersection": ".249691",
        "jupiter_tisserand_invariant": "3.355",
        "epoch_osculation": "2459000.5",
        "eccentricity": ".4808499269114291",
        "semi_major_axis": "2.387868934159131",
        "inclination": "8.267041363080837",
        "ascending_node_longitude": "49.37653551207866",
        "orbital_period": "1347.764941179371",
        "perihelion_distance": "1.239662331694641",
        "perihelion_argument": "357.1925618086718",
        "aphelion_distance": "3.536075536623621",
        "perihelion_time": "2458800.094128125729",
        "mean_anomaly": "53.53019036955028",
        "mean_motion": ".2671088919147722",
        "equinox": "J2000",
        "orbit_class": {
            "orbit_class_type": "AMO",
            "orbit_class_description": "Near-Earth asteroid orbits similar to that of 1221 Amor",
            "orbit_class_range": "1.017 AU < q (perihelion) < 1.3 AU"
        }
    },
    "is_sentry_object": false
}